[{"OBJECT_NAME":"STARLINK-32700","OBJECT_ID":"2024-239L","EPOCH":"2026-03-09T15:11:01.523328","MEAN_MOTION":15.30183799,"ECCENTRICITY":0.0001212,"INCLINATION":53.161,"RA_OF_ASC_NODE":181.5169,"ARG_OF_PERICENTER":59.4537,"MEAN_ANOMALY":300.6583,"EPHEMERIS_TYPE":0,"CLASSIFICATION_TYPE":"U","NORAD_CAT_ID":62311,"ELEMENT_SET_NO":999,"REV_AT_EPOCH":6954,"BSTAR":0.0011327,"MEAN_MOTION_DOT":0.00033323,"MEAN_MOTION_DDOT":0},{"OBJECT_NAME":"COSMOS 1862","OBJECT_ID":"1987-055A","EPOCH":"2026-03-09T22:37:02.390592","MEAN_MOTION":15.30492139,"ECCENTRICITY":0.00097484,"INCLINATION":82.4856,"RA_OF_ASC_NODE":47.1862,"ARG_OF_PERICENTER":26.6325,"MEAN_ANOMALY":333.5414,"EPHEMERIS_TYPE":0,"CLASSIFICATION_TYPE":"U","NORAD_CAT_ID":18152,"ELEMENT_SET_NO":999,"REV_AT_EPOCH":8987,"BSTAR":0.00034125048,"MEAN_MOTION_DOT":0.00010107,"MEAN_MOTION_DDOT":0}]
